
# C42 (GNSS)
1 44865U 19090B   26201.33798360 -.00000078  00000+0  00000+0 0  9990
2 44865  56.5902  61.7294 0013750 313.4468 215.9166  1.86231473 44834

# C60 (GNSS)
1 45344U 20017A   26202.64452186 -.00000140  00000+0  00000+0 0  9992
2 45344   2.9329  47.8340 0001994  57.2509 146.3712  1.00272603 23600

# C61 (GNSS)
1 45807U 20040A   26202.63817372 -.00000354  00000+0  00000+0 0  9990
2 45807   2.5301  67.5062 0002299 314.0816 258.0922  1.00273705 22410

# C62 (GNSS)
1 56564U 23066A   26202.64406707 -.00000279  00000+0  00000+0 0  9996
2 56564   0.4555 340.7614 0005101 183.1913 147.3753  1.00270914 11731

# C50 (GNSS)
1 58654U 23207A   26202.12766076 -.00000082  00000+0  00000+0 0  9998
2 58654  55.7832  61.1582 0002229   8.8323 351.2326  1.86229790 17477

# E30 (GNSS)
1 40890U 15045B   26201.30589843  .00000058  00000+0  00000+0 0  9998
2 40890  54.9380 220.6893 0002088 330.0131  30.0144  1.70473732 67606

# E07 (GNSS)
1 41859U 16069A   26201.18093858 -.00000041  00000+0  00000+0 0  9996
2 41859  55.5174 100.1729 0004477 340.2934  19.7267  1.70473575 59963

# E08 (GNSS)
1 41175U 15079B   26202.28122271 -.00000045  00000+0  00000+0 0  9995
2 41175  55.8450 100.3230 0004254 357.2221   2.8108  1.70473614 65770

# E09 (GNSS)
1 41174U 15079A   26200.88772413 -.00000039  00000+0  00000+0 0  9990
2 41174  55.8457 100.3644 0004618 358.4074   1.6290  1.70473671 65332

# E01 (GNSS)
1 41550U 16030B   26202.07544326  .00000063  00000+0  00000+0 0  9995
2 41550  55.0872 220.7604 0004714 246.6684 113.3235  1.70473925 63248

# E02 (GNSS)
1 41549U 16030A   26201.23161694  .00000057  00000+0  00000+0 0  9996
2 41549  55.0891 220.7852 0003443 318.9851  41.0285  1.70473740 63235

# E03 (GNSS)
1 41860U 16069B   26202.20750608 -.00000046  00000+0  00000+0 0  9990
2 41860  55.5158 100.1394 0004406  15.8741 344.1750  1.70473851 60239

# E04 (GNSS)
1 41861U 16069C   26201.98808741 -.00000045  00000+0  00000+0 0  9996
2 41861  55.5169 100.1530 0003280 326.3606  33.6543  1.70474276 60099

# E05 (GNSS)
1 41862U 16069D   26202.13435722 -.00000045  00000+0  00000+0 0  9990
2 41862  55.5164 100.1420 0003141 335.1519  24.8684  1.70473784 60226

# E21 (GNSS)
1 43055U 17079A   26202.62380459  .00000067  00000+0  00000+0 0  9991
2 43055  55.0665 220.5584 0003765 269.3113  90.6885  1.70474444 53579

# E25 (GNSS)
1 43056U 17079B   26201.15518388  .00000057  00000+0  00000+0 0  9992
2 43056  55.0668 220.5989 0004934 278.3287  81.6543  1.70474538 53567

# E27 (GNSS)
1 43057U 17079C   26201.96257603  .00000062  00000+0  00000+0 0  9998
2 43057  55.0652 220.5745 0004259 292.9460  67.0499  1.70474474 53563

# E31 (GNSS)
1 43058U 17079D   26202.18265508  .00000064  00000+0  00000+0 0  9999
2 43058  55.0651 220.5659 0005415 275.2147  84.7650  1.70474478 53590

# E36 (GNSS)
1 43566U 18060C   26199.59444257 -.00000105  00000+0  00000+0 0  9991
2 43566  57.1608 340.9384 0001857 295.5518  64.4195  1.70476160 49723

# E13 (GNSS)
1 43567U 18060D   26200.98863111 -.00000107  00000+0  00000+0 0  9994
2 43567  57.1597 340.9001 0002110 284.4251  75.5444  1.70476103 49739

# E15 (GNSS)
1 43564U 18060A   26198.56730463 -.00000104  00000+0  00000+0 0  9991
2 43564  57.1585 340.9609 0002701 283.6812  76.2771  1.70476136 49688

# E33 (GNSS)
1 43565U 18060B   26201.71993406 -.00000107  00000+0  00000+0 0  9995
2 43565  57.1607 340.8795 0002975 234.4134 125.5527  1.70476015 49787

# E34 (GNSS)
1 49809U 21116A   26201.37308213 -.00000107  00000+0  00000+0 0  9996
2 49809  57.1482 340.7789 0002482 195.0305 131.7493  1.70476368 28747

# E10 (GNSS)
1 49810U 21116B   26200.95392787 -.00000107  00000+0  00000+0 0  9990
2 49810  57.1487 340.7887 0001903 182.1498   0.0180  1.70476408 28768

# R01 (GNSS)
1 36111U 09070A   26202.30013477 -.00000053  00000+0  00000+0 0  9992
2 36111  65.0317  69.8088 0003430 344.1065 162.6207  2.13103502129157

# R02 (GNSS)
1 39155U 13019A   26201.22743888 -.00000049  00000+0  00000+0 0  9992
2 39155  65.4381  72.4960 0022557 230.6909 129.1761  2.13103050102982

# R03 (GNSS)
1 37867U 11064A   26202.35733743 -.00000053  00000+0  00000+0 0  9997
2 37867  65.2896  71.7181 0022039 235.5042 223.4275  2.13103526114498

# R04 (GNSS)
1 44850U 19088A   26199.93909424 -.00000038  00000+0  00000+0 0  9994
2 44850  65.5828  72.6716 0012049 253.1294 106.8089  2.13102904 51390

# R05 (GNSS)
1 43508U 18053A   26201.40231311 -.00000049  00000+0  00000+0 0  9995
2 43508  65.5961  72.7996 0006344 227.3843 132.6293  2.13101992 62989

# R06 (GNSS)
1 36112U 09070B   26201.23645572 -.00000051  00000+0  00000+0 0  9999
2 36112  65.0165  69.6883 0004303 122.0917  55.7210  2.13100985129135

# R07 (GNSS)
1 37868U 11064B   26202.23753319 -.00000053  00000+0  00000+0 0  9996
2 37868  65.2960  71.8019 0019065 236.4863 310.7777  2.13102816114485

# R08 (GNSS)
1 37869U 11064C   26202.27236928 -.00000053  00000+0  00000+0 0  9993
2 37869  65.3028  71.8225 0024516 250.3630 278.6004  2.13101636114490

# R09 (GNSS)
1 40315U 14075A   26202.55658060  .00000090  00000+0  00000+0 0  9994
2 40315  63.6189 189.1825 0022596 212.4587 147.4043  2.13101380 90589

# R10 (GNSS)
1 32395U 07065C   26201.38576125  .00000084  00000+0  00000+0 0  9998
2 32395  64.3289 190.8685 0017323 353.6543 145.4326  2.13100001144437

# R11 (GNSS)
1 46805U 20075A   26201.26230815  .00000083  00000+0  00000+0 0  9994
2 46805  64.6016 191.3717 0009465 239.9348 119.9732  2.13099966 44611

# R12 (GNSS)
1 44299U 19030A   26202.40378470  .00000091  00000+0  00000+0 0  9994
2 44299  64.3710 191.4642 0013452 275.0116 193.9671  2.13102247 55654

# R13 (GNSS)
1 32393U 07065A   26201.60474382  .00000086  00000+0  00000+0 0  9995
2 32393  64.3202 190.7886 0001234 328.2500 206.6629  2.13101204144484

# R14 (GNSS)
1 42939U 17055A   26201.44027304  .00000084  00000+0  00000+0 0  9990
2 42939  64.0809 190.7524 0010884 240.6370 119.2556  2.13101801 68681

# R15 (GNSS)
1 43687U 18086A   26201.49849141  .00000085  00000+0  00000+0 0  9993
2 43687  64.2975 191.4696 0011976 256.3144 103.5547  2.13101999 59990

# R16 (GNSS)
1 54377U 22161A   26202.02773781  .00000090  00000+0  00000+0 0  9992
2 54377  64.7442 191.5883 0012178 224.7321 135.1739  2.13102069 28351

# R17 (GNSS)
1 41330U 16008A   26201.60265593 -.00000085  00000+0  00000+0 0  9995
2 41330  64.9994 311.8597 0012484 201.8566 158.1123  2.13102623 81331

# R18 (GNSS)
1 39620U 14012A   26201.18630057 -.00000083  00000+0  00000+0 0  9999
2 39620  65.2760 312.8143 0010304 316.7836  43.1566  2.13103109 95944

# R19 (GNSS)
1 54031U 22130A   26202.18464193 -.00000089  00000+0  00000+0 0  9995
2 54031  64.2489 313.3698 0013171 181.7048 178.3110  2.13101788 29411

# R20 (GNSS)
1 32276U 07052B   26202.28493640 -.00000088  00000+0  00000+0 0  9997
2 32276  65.5714 314.9145 0007374 320.9889  69.8285  2.13103020145816

# R21 (GNSS)
1 40001U 14032A   26201.82488942 -.00000086  00000+0  00000+0 0  9994
2 40001  65.2108 312.5368 0008498 191.5503 168.4514  2.13105824 94176

# R22 (GNSS)
1 52984U 22075A   26201.89567594 -.00000088  00000+0  00000+0 0  9993
2 52984  64.2766 313.2973 0010827 270.8513  89.0451  2.13102143 31438

# R23 (GNSS)
1 36402U 10007C   26202.40772837 -.00000088  00000+0  00000+0 0  9998
2 36402  65.3983 313.3083 0001852 154.3387 203.9833  2.13101549127452

# R24 (GNSS)
1 45358U 20018A   26201.07254601 -.00000083  00000+0  00000+0 0  9992
2 45358  64.3333 311.2627 0009901 230.0825 129.8537  2.13102411 49362

# R25 (GNSS)
1 32275U 07052A   26202.17145376 -.00000087  00000+0  00000+0 0  9993
2 32275  65.5556 314.7897 0003719 203.8397 156.1614  2.13104045145783
